U8933    8.1   0.15 K13B4   0.11919  122.49628  197.38397   19.46659  0.9690110  0.00004523 780.1763927    MPO212676    65   5 2005-2010 0.17 M-v 38h MPCW       0011 (308933) 2006 SQ372         20100917
